0 WESTFORD NEEDLES
1 20023U 63014EZ  13277.45008138 -.00000057  00000-0 -62856-3 0  2830
2 20023 085.1393 072.9544 2545564 045.0274 004.8257 08.87470762599381
0 WESTFORD NEEDLES
1 20023U 63014EZ  13279.48037897 -.00000479  00000-0 -43955-2 0  2846
2 20023 085.1358 072.5253 2544715 042.5664 011.4138 08.87472590599560
0 WESTFORD NEEDLES
1 20023U 63014EZ  13282.40264713 -.00001056  00000-0 -95869-2 0  2855
2 20023 085.1310 071.9079 2543523 039.0184 347.7804 08.87473394599828
0 WESTFORD NEEDLES
1 20023U 63014EZ  13285.78043655 -.00000362  00000-0 -33295-2 0  2864
2 20023 085.1400 071.2030 2545920 035.0281 339.3903 08.87466402600120
0 WESTFORD NEEDLES
1 20023U 63014EZ  13285.79305712 -.00001276  00000-0 -11607-1 0  2878
2 20023 085.1276 071.1926 2542522 034.9165 019.8020 08.87463419600123
0 WESTFORD NEEDLES
1 20023U 63014EZ  13288.38371587 -.00001094  00000-0 -99928-2 0  2881
2 20023 085.1246 070.6456 2541818 031.7731 016.6360 08.87457429600354
0 WESTFORD NEEDLES
1 20023U 63014EZ  13291.42591597 -.00000243  00000-0 -23029-2 0  2890
2 20023 085.1190 070.0010 2541128 028.0774 016.0366 08.87448259600623
